{
    "links": {
        "self": "http://www.neowsapp.com/rest/v1/neo/3873194?api_key=iIulBulltgU6a56xZRHN4H3l9WmuAYTsLGpBGhQ2"
    },
    "id": "3873194",
    "neo_reference_id": "3873194",
    "name": "(2019 SZ9)",
    "designation": "2019 SZ9",
    "nasa_jpl_url": "http://ssd.jpl.nasa.gov/sbdb.cgi?sstr=3873194",
    "absolute_magnitude_h": 24.4,
    "estimated_diameter": {
        "kilometers": {
            "estimated_diameter_min": 0.0350392641,
            "estimated_diameter_max": 0.0783501764
        },
        "meters": {
            "estimated_diameter_min": 35.0392641108,
            "estimated_diameter_max": 78.3501764334
        },
        "miles": {
            "estimated_diameter_min": 0.0217723826,
            "estimated_diameter_max": 0.0486845275
        },
        "feet": {
            "estimated_diameter_min": 114.9582192654,
            "estimated_diameter_max": 257.0543928497
        }
    },
    "is_potentially_hazardous_asteroid": false,
    "close_approach_data": [
        {
            "close_approach_date": "2019-10-02",
            "close_approach_date_full": "2019-Oct-02 10:39",
            "epoch_date_close_approach": 1570012740000,
            "relative_velocity": {
                "kilometers_per_second": "19.579290839",
                "kilometers_per_hour": "70485.4470204112",
                "miles_per_hour": "43796.915677766"
            },
            "miss_distance": {
                "astronomical": "0.1385357995",
                "lunar": "53.8904260055",
                "kilometers": "20724660.523947065",
                "miles": "12877706.902376897"
            },
            "orbiting_body": "Earth"
        }
    ],
    "orbital_data": {
        "orbit_id": "1",
        "orbit_determination_date": "2019-10-02 06:12:04",
        "first_observation_date": "2019-09-25",
        "last_observation_date": "2019-10-02",
        "data_arc_in_days": 7,
        "observations_used": 23,
        "orbit_uncertainty": "8",
        "minimum_orbit_intersection": ".138224",
        "jupiter_tisserand_invariant": "4.457",
        "epoch_osculation": "2458753.5",
        "eccentricity": ".2567662595494976",
        "semi_major_axis": "1.426103273223223",
        "inclination": "36.96892389404276",
        "ascending_node_longitude": "6.43057517617336",
        "orbital_period": "622.0494234579215",
        "perihelion_distance": "1.059928070026401",
        "perihelion_argument": "50.48567374218722",
        "aphelion_distance": "1.792278476420046",
        "perihelion_time": "2458807.536990351654",
        "mean_anomaly": "328.7270564154596",
        "mean_motion": ".5787321496076463",
        "equinox": "J2000",
        "orbit_class": {
            "orbit_class_type": "AMO",
            "orbit_class_description": "Near-Earth asteroid orbits similar to that of 1221 Amor",
            "orbit_class_range": "1.017 AU < q (perihelion) < 1.3 AU"
        }
    },
    "is_sentry_object": false
}